CCSDS_OMM_VERS = 2.0
CREATION_DATE  = 
ORIGINATOR     = 

OBJECT_NAME    = UNKNOWN
OBJECT_ID      = 
CENTER_NAME    = EARTH
REF_FRAME      = TEME
TIME_SYSTEM    = UTC
MEAN_ELEMENT_THEORY = SGP/SGP4

EPOCH          = 2026-01-19T15:44:28.737024
MEAN_MOTION    = 7.84499452
ECCENTRICITY   = .3641257
INCLINATION    = 65.0543
RA_OF_ASC_NODE = 224.4552
ARG_OF_PERICENTER = 14.5599
MEAN_ANOMALY   = 353.6813

EPHEMERIS_TYPE = 0
CLASSIFICATION_TYPE = U
NORAD_CAT_ID   = 84188
ELEMENT_SET_NO = 999
REV_AT_EPOCH   = 4419
BSTAR          = .74914E-1
MEAN_MOTION_DOT = .178951E-2
MEAN_MOTION_DDOT = 0

CCSDS_OMM_VERS = 2.0
CREATION_DATE  = 
ORIGINATOR     = 

OBJECT_NAME    = UNKNOWN
OBJECT_ID      = 
CENTER_NAME    = EARTH
REF_FRAME      = TEME
TIME_SYSTEM    = UTC
MEAN_ELEMENT_THEORY = SGP/SGP4

EPOCH          = 2026-01-19T06:35:15.179136
MEAN_MOTION    = 3.18359520
ECCENTRICITY   = .6553043
INCLINATION    = 20.3107
RA_OF_ASC_NODE = 252.5071
ARG_OF_PERICENTER = 103.4393
MEAN_ANOMALY   = 332.4449

EPHEMERIS_TYPE = 0
CLASSIFICATION_TYPE = U
NORAD_CAT_ID   = 84232
ELEMENT_SET_NO = 999
REV_AT_EPOCH   = 10588
BSTAR          = .16754E-1
MEAN_MOTION_DOT = .20474E-3
MEAN_MOTION_DDOT = 0

CCSDS_OMM_VERS = 2.0
CREATION_DATE  = 
ORIGINATOR     = 

OBJECT_NAME    = UNKNOWN
OBJECT_ID      = 
CENTER_NAME    = EARTH
REF_FRAME      = TEME
TIME_SYSTEM    = UTC
MEAN_ELEMENT_THEORY = SGP/SGP4

EPOCH          = 2026-01-20T13:58:51.799008
MEAN_MOTION    = 6.21820267
ECCENTRICITY   = .4562117
INCLINATION    = 23.8212
RA_OF_ASC_NODE = 106.5435
ARG_OF_PERICENTER = 333.5766
MEAN_ANOMALY   = 9.0198

EPHEMERIS_TYPE = 0
CLASSIFICATION_TYPE = U
NORAD_CAT_ID   = 84292
ELEMENT_SET_NO = 999
REV_AT_EPOCH   = 23048
BSTAR          = .4329E-2
MEAN_MOTION_DOT = .7702E-4
MEAN_MOTION_DDOT = 0

CCSDS_OMM_VERS = 2.0
CREATION_DATE  = 
ORIGINATOR     = 

OBJECT_NAME    = UNKNOWN
OBJECT_ID      = 
CENTER_NAME    = EARTH
REF_FRAME      = TEME
TIME_SYSTEM    = UTC
MEAN_ELEMENT_THEORY = SGP/SGP4

EPOCH          = 2026-01-08T05:15:04.591296
MEAN_MOTION    = 12.67381377
ECCENTRICITY   = .0042055
INCLINATION    = 101.7141
RA_OF_ASC_NODE = 157.7019
ARG_OF_PERICENTER = 340.3466
MEAN_ANOMALY   = 199.3092

EPHEMERIS_TYPE = 0
CLASSIFICATION_TYPE = U
NORAD_CAT_ID   = 84406
ELEMENT_SET_NO = 999
REV_AT_EPOCH   = 5264
BSTAR          = .43231E-2
MEAN_MOTION_DOT = .785E-5
MEAN_MOTION_DDOT = 0

CCSDS_OMM_VERS = 2.0
CREATION_DATE  = 
ORIGINATOR     = 

OBJECT_NAME    = UNKNOWN
OBJECT_ID      = 
CENTER_NAME    = EARTH
REF_FRAME      = TEME
TIME_SYSTEM    = UTC
MEAN_ELEMENT_THEORY = SGP/SGP4

EPOCH          = 2026-01-16T22:09:35.551296
MEAN_MOTION    = 2.05777016
ECCENTRICITY   = .7202436
INCLINATION    = 19.4644
RA_OF_ASC_NODE = 312.1530
ARG_OF_PERICENTER = 80.6851
MEAN_ANOMALY   = 347.5491

EPHEMERIS_TYPE = 0
CLASSIFICATION_TYPE = U
NORAD_CAT_ID   = 84407
ELEMENT_SET_NO = 999
REV_AT_EPOCH   = 7659
BSTAR          = .12077E-1
MEAN_MOTION_DOT = .26E-5
MEAN_MOTION_DDOT = 0

CCSDS_OMM_VERS = 2.0
CREATION_DATE  = 
ORIGINATOR     = 

OBJECT_NAME    = UNKNOWN
OBJECT_ID      = 
CENTER_NAME    = EARTH
REF_FRAME      = TEME
TIME_SYSTEM    = UTC
MEAN_ELEMENT_THEORY = SGP/SGP4

EPOCH          = 2026-01-18T16:21:34.855488
MEAN_MOTION    = 2.19881415
ECCENTRICITY   = .7104505
INCLINATION    = 18.0546
RA_OF_ASC_NODE = 146.3005
ARG_OF_PERICENTER = 44.8612
MEAN_ANOMALY   = 353.9722

EPHEMERIS_TYPE = 0
CLASSIFICATION_TYPE = U
NORAD_CAT_ID   = 84575
ELEMENT_SET_NO = 999
REV_AT_EPOCH   = 6627
BSTAR          = -.11972E-1
MEAN_MOTION_DOT = -.262E-5
MEAN_MOTION_DDOT = 0

CCSDS_OMM_VERS = 2.0
CREATION_DATE  = 
ORIGINATOR     = 

OBJECT_NAME    = UNKNOWN
OBJECT_ID      = 
CENTER_NAME    = EARTH
REF_FRAME      = TEME
TIME_SYSTEM    = UTC
MEAN_ELEMENT_THEORY = SGP/SGP4

EPOCH          = 2026-01-20T14:41:15.160128
MEAN_MOTION    = 3.00030414
ECCENTRICITY   = .6578175
INCLINATION    = 2.0278
RA_OF_ASC_NODE = 220.6047
ARG_OF_PERICENTER = 99.8179
MEAN_ANOMALY   = 184.6348

EPHEMERIS_TYPE = 0
CLASSIFICATION_TYPE = U
NORAD_CAT_ID   = 84932
ELEMENT_SET_NO = 999
REV_AT_EPOCH   = 13294
BSTAR          = .13346E-1
MEAN_MOTION_DOT = .1794E-4
MEAN_MOTION_DDOT = 0

CCSDS_OMM_VERS = 2.0
CREATION_DATE  = 
ORIGINATOR     = 

OBJECT_NAME    = UNKNOWN
OBJECT_ID      = 
CENTER_NAME    = EARTH
REF_FRAME      = TEME
TIME_SYSTEM    = UTC
MEAN_ELEMENT_THEORY = SGP/SGP4

EPOCH          = 2026-01-19T10:05:16.817856
MEAN_MOTION    = 14.41185631
ECCENTRICITY   = .0048038
INCLINATION    = 98.4261
RA_OF_ASC_NODE = 354.9088
ARG_OF_PERICENTER = 50.0461
MEAN_ANOMALY   = 104.4337

EPHEMERIS_TYPE = 0
CLASSIFICATION_TYPE = U
NORAD_CAT_ID   = 85004
ELEMENT_SET_NO = 999
REV_AT_EPOCH   = 63632
BSTAR          = .37406E-3
MEAN_MOTION_DOT = .118E-4
MEAN_MOTION_DDOT = 0

CCSDS_OMM_VERS = 2.0
CREATION_DATE  = 
ORIGINATOR     = 

OBJECT_NAME    = UNKNOWN
OBJECT_ID      = 
CENTER_NAME    = EARTH
REF_FRAME      = TEME
TIME_SYSTEM    = UTC
MEAN_ELEMENT_THEORY = SGP/SGP4

EPOCH          = 2026-01-19T02:27:26.820864
MEAN_MOTION    = 13.75140444
ECCENTRICITY   = .0024928
INCLINATION    = 99.2489
RA_OF_ASC_NODE = 244.8715
ARG_OF_PERICENTER = 154.9690
MEAN_ANOMALY   = 356.7290

EPHEMERIS_TYPE = 0
CLASSIFICATION_TYPE = U
NORAD_CAT_ID   = 85010
ELEMENT_SET_NO = 999
REV_AT_EPOCH   = 60905
BSTAR          = .97859E-3
MEAN_MOTION_DOT = .896E-5
MEAN_MOTION_DDOT = 0

CCSDS_OMM_VERS = 2.0
CREATION_DATE  = 
ORIGINATOR     = 

OBJECT_NAME    = UNKNOWN
OBJECT_ID      = 
CENTER_NAME    = EARTH
REF_FRAME      = TEME
TIME_SYSTEM    = UTC
MEAN_ELEMENT_THEORY = SGP/SGP4

EPOCH          = 2026-01-20T13:29:45.455424
MEAN_MOTION    = 14.62347240
ECCENTRICITY   = .0016093
INCLINATION    = 74.0504
RA_OF_ASC_NODE = 323.9076
ARG_OF_PERICENTER = 224.4860
MEAN_ANOMALY   = 135.5016

EPHEMERIS_TYPE = 0
CLASSIFICATION_TYPE = U
NORAD_CAT_ID   = 85015
ELEMENT_SET_NO = 999
REV_AT_EPOCH   = 64828
BSTAR          = .21199E-3
MEAN_MOTION_DOT = .1043E-4
MEAN_MOTION_DDOT = 0

CCSDS_OMM_VERS = 2.0
CREATION_DATE  = 
ORIGINATOR     = 

OBJECT_NAME    = UNKNOWN
OBJECT_ID      = 
CENTER_NAME    = EARTH
REF_FRAME      = TEME
TIME_SYSTEM    = UTC
MEAN_ELEMENT_THEORY = SGP/SGP4

EPOCH          = 2026-01-19T00:53:02.720256
MEAN_MOTION    = 14.76628801
ECCENTRICITY   = .0002368
INCLINATION    = 99.8471
RA_OF_ASC_NODE = 47.5825
ARG_OF_PERICENTER = 191.0608
MEAN_ANOMALY   = 198.3543

EPHEMERIS_TYPE = 0
CLASSIFICATION_TYPE = U
NORAD_CAT_ID   = 85023
ELEMENT_SET_NO = 999
REV_AT_EPOCH   = 63433
BSTAR          = .36712E-2
MEAN_MOTION_DOT = .2568E-3
MEAN_MOTION_DDOT = 0

